NORAD_CAT_ID,OBJECT_NAME,OBJECT_TYPE,EPOCH,MEAN_MOTION,ECCENTRICITY,INCLINATION,RA_OF_ASC_NODE,ARG_OF_PERICENTER,MEAN_ANOMALY,BSTAR,MEAN_MOTION_DOT,MEAN_MOTION_DDOT,TLE_LINE0,TLE_LINE1,TLE_LINE2,SEMIMAJOR_AXIS,PERIOD,APOGEE,PERIGEE,DECAYED
50823.0,STARLINK-3334,PAYLOAD,2023-03-05 06:19:50,15.08835833,0.0001432,53.2155,69.1259,97.4541,262.6614,-6.0968e-05,-1.258e-05,0.0,0 STARLINK-3334,1 50823U 22001W   23064.26377650 -.00001258  00000-0 -60968-4 0  9995,2 50823  53.2155  69.1259 0001432  97.4541 262.6614 15.08835833 65566,6917.893,95.438,540.749,538.767,0.0
50823.0,STARLINK-3334,PAYLOAD,2023-03-05 07:55:13,15.08836402,0.0001325,53.2153,68.8284,92.422,267.6923,-5.7745e-05,-1.207e-05,0.0,0 STARLINK-3334,1 50823U 22001W   23064.33001664 -.00001207  00000-0 -57745-4 0  9995,2 50823  53.2153  68.8284 0001325  92.4220 267.6923 15.08836402 64298,6917.891,95.438,540.673,538.84,0.0
50823.0,STARLINK-3334,PAYLOAD,2023-03-05 17:27:32,15.08838514,0.0001158,53.2141,67.0414,105.9511,254.1609,-4.4746e-05,-1e-05,0.0,0 STARLINK-3334,1 50823U 22001W   23064.72745559 -.00001000  00000-0 -44746-4 0  9994,2 50823  53.2141  67.0414 0001158 105.9511 254.1609 15.08838514 64353,6917.885,95.438,540.551,538.949,0.0
50823.0,STARLINK-3334,PAYLOAD,2023-03-06 04:35:13,15.08845695,0.0001383,53.2157,64.961,89.9065,270.2086,0.00014457,2.014e-05,0.0,0 STARLINK-3334,1 50823U 22001W   23065.19113336  .00002014  00000-0  14457-3 0  9997,2 50823  53.2157  64.9610 0001383  89.9065 270.2086 15.08845695 65705,6917.863,95.437,540.685,538.771,0.0
50823.0,STARLINK-3334,PAYLOAD,2023-03-06 17:18:19,15.08837841,0.0001507,53.215,62.5834,83.4327,276.6837,0.000133,1.829e-05,0.0,0 STARLINK-3334,1 50823U 22001W   23065.72106037  .00001829  00000-0  13300-3 0  9995,2 50823  53.2150  62.5834 0001507  83.4327 276.6837 15.08837841 65784,6917.887,95.438,540.795,538.709,0.0
50823.0,STARLINK-3334,PAYLOAD,2023-03-07 09:12:10,15.08853143,0.0001211,53.2142,59.6061,106.4935,253.619,0.00040359,6.143e-05,0.0,0 STARLINK-3334,1 50823U 22001W   23066.38345451  .00006143  00000-0  40359-3 0  9991,2 50823  53.2142  59.6061 0001211 106.4935 253.6190 15.08853143 65888,6917.84,95.437,540.543,538.867,0.0
50823.0,STARLINK-3334,PAYLOAD,2023-03-07 21:55:16,15.08835814,7.58e-05,53.2146,57.2267,123.4633,236.6432,4.1228e-05,3.68e-06,0.0,0 STARLINK-3334,1 50823U 22001W   23066.91338033  .00000368  00000-0  41228-4 0  9998,2 50823  53.2146  57.2267 0000758 123.4633 236.6432 15.08835814 64685,6917.893,95.438,540.283,539.234,0.0
50823.0,STARLINK-3334,PAYLOAD,2023-03-08 05:52:11,15.0885014,9.89e-05,53.2144,55.7406,102.9852,257.1251,0.00064338,9.969e-05,0.0,0 STARLINK-3334,1 50823U 22001W   23067.24457821  .00009969  00000-0  64338-3 0  9994,2 50823  53.2144  55.7406 0000989 102.9852 257.1251 15.08850140 66017,6917.849,95.437,540.399,539.03,0.0
50823.0,STARLINK-3334,PAYLOAD,2023-03-08 09:02:57,15.08856254,0.0001036,53.2143,55.146,104.3832,255.7275,0.00093162,0.00014576,0.0,0 STARLINK-3334,1 50823U 22001W   23067.37705727  .00014576  00000-0  93162-3 0  9996,2 50823  53.2143  55.1460 0001036 104.3832 255.7275 15.08856254 64759,6917.831,95.437,540.412,538.979,0.0
50823.0,STARLINK-3334,PAYLOAD,2023-03-08 23:21:26,15.08858522,0.0001169,53.2149,52.4698,99.6414,260.4711,0.0015565,0.00024583,0.0,0 STARLINK-3334,1 50823U 22001W   23067.97322333  .00024583  00000-0  15565-2 0  9999,2 50823  53.2149  52.4698 0001169  99.6414 260.4711 15.08858522 66128,6917.824,95.436,540.497,538.88,0.0
50823.0,STARLINK-3334,PAYLOAD,2023-03-09 05:42:59,15.08849926,8.89e-05,53.2149,51.2797,83.9165,276.1929,0.0010533,0.0001652,0.0,0 STARLINK-3334,1 50823U 22001W   23068.23818297  .00016520  00000-0  10533-2 0  9990,2 50823  53.2149  51.2797 0000889  83.9165 276.1929 15.08849926 66169,6917.85,95.437,540.33,539.1,0.0
50823.0,STARLINK-3334,PAYLOAD,2023-03-10 05:33:45,15.08864883,0.000141,53.2152,46.8193,93.5742,266.5411,0.0012496,0.00019669,0.0,0 STARLINK-3334,1 50823U 22001W   23069.23177767  .00019669  00000-0  12496-2 0  9998,2 50823  53.2152  46.8193 0001410  93.5742 266.5411 15.08864883 66317,6917.804,95.436,540.645,538.694,0.0
50823.0,STARLINK-3334,PAYLOAD,2023-03-10 15:06:04,15.08839025,0.0001427,53.2159,45.0356,100.4879,259.6274,-0.00015541,-2.76e-05,0.0,0 STARLINK-3334,1 50823U 22001W   23069.62921866 -.00002760  00000-0 -15541-3 0  9999,2 50823  53.2159  45.0356 0001427 100.4879 259.6274 15.08839025 66379,6917.883,95.438,540.736,538.761,0.0
50823.0,STARLINK-3334,PAYLOAD,2023-03-11 06:59:56,15.08837697,0.0001448,53.2168,42.0638,112.2647,247.8499,0.00032406,4.873e-05,0.0,0 STARLINK-3334,1 50823U 22001W   23070.29162248  .00004873  00000-0  32406-3 0  9999,2 50823  53.2168  42.0638 0001448 112.2647 247.8499 15.08837697 65196,6917.887,95.438,540.754,538.751,0.0
50823.0,STARLINK-3334,PAYLOAD,2023-03-12 06:50:43,15.08845015,0.0001483,53.2164,37.6033,117.6651,242.4492,0.00058312,9.006e-05,0.0,0 STARLINK-3334,1 50823U 22001W   23071.28522519  .00009006  00000-0  58312-3 0  9997,2 50823  53.2164  37.6033 0001483 117.6651 242.4492 15.08845015 66620,6917.865,95.437,540.756,538.704,0.0
50823.0,STARLINK-3334,PAYLOAD,2023-03-13 06:41:30,15.0884624,0.0001713,53.2159,33.1421,101.8453,258.2732,0.00015261,2.142e-05,0.0,0 STARLINK-3334,1 50823U 22001W   23072.27882478  .00002142  00000-0  15261-3 0  9990,2 50823  53.2159  33.1421 0001713 101.8453 258.2732 15.08846240 66776,6917.861,95.437,540.911,538.541,0.0
50823.0,STARLINK-3334,PAYLOAD,2023-03-13 20:59:59,15.08831107,0.0001504,53.2165,30.4641,121.4334,238.6806,-0.0001463,-2.615e-05,0.0,0 STARLINK-3334,1 50823U 22001W   23072.87499004 -.00002615  00000-0 -14630-3 0  9991,2 50823  53.2165  30.4641 0001504 121.4334 238.6806 15.08831107 66861,6917.908,95.438,540.813,538.732,0.0
50823.0,STARLINK-3334,PAYLOAD,2023-03-14 06:32:18,15.08838894,0.000152,53.2165,28.6792,119.7064,240.408,0.0002058,2.989e-05,0.0,0 STARLINK-3334,1 50823U 22001W   23073.27243094  .00002989  00000-0  20580-3 0  9995,2 50823  53.2165  28.6792 0001520 119.7064 240.4080 15.08838894 65645,6917.884,95.438,540.8,538.697,0.0
50823.0,STARLINK-3334,PAYLOAD,2023-03-14 14:29:13,15.08839762,0.0001357,53.2172,27.1923,111.374,248.7397,0.00035064,5.297e-05,0.0,0 STARLINK-3334,1 50823U 22001W   23073.60363382  .00005297  00000-0  35064-3 0  9993,2 50823  53.2172  27.1923 0001357 111.3740 248.7397 15.08839762 65692,6917.881,95.438,540.685,538.807,0.0
50823.0,STARLINK-3334,PAYLOAD,2023-03-15 03:12:17,15.0887208,0.0001114,53.2164,24.8154,95.2587,264.8532,0.00090624,0.00014177,0.0,0 STARLINK-3334,1 50823U 22001W   23074.13354064  .00014177  00000-0  90624-3 0  9999,2 50823  53.2164  24.8154 0001114  95.2587 264.8532 15.08872080 67055,6917.782,95.436,540.418,538.877,0.0
50823.0,STARLINK-3334,PAYLOAD,2023-03-15 06:23:03,15.08876244,0.000117,53.2163,24.2197,96.6381,263.4745,0.00098156,0.00015384,0.0,0 STARLINK-3334,1 50823U 22001W   23074.26601773  .00015384  00000-0  98156-3 0  9994,2 50823  53.2163  24.2197 0001170  96.6381 263.4745 15.08876244 65790,6917.77,95.435,540.444,538.825,0.0
50823.0,STARLINK-3334,PAYLOAD,2023-03-15 20:41:32,15.08847832,0.0001323,53.2171,21.5446,91.1897,268.9247,0.00011218,1.498e-05,0.0,0 STARLINK-3334,1 50823U 22001W   23074.86218484  .00001498  00000-0  11218-3 0  9998,2 50823  53.2171  21.5446 0001323  91.1897 268.9247 15.08847832 67169,6917.856,95.437,540.637,538.806,0.0
50823.0,STARLINK-3334,PAYLOAD,2023-03-16 04:38:28,15.08865706,7.82e-05,53.2163,20.0565,83.7638,276.3444,0.00059741,9.239e-05,0.0,0 STARLINK-3334,1 50823U 22001W   23075.19338005  .00009239  00000-0  59741-3 0  9991,2 50823  53.2163  20.0565 0000782  83.7638 276.3444 15.08865706 67212,6917.802,95.436,540.208,539.126,0.0
50823.0,STARLINK-3334,PAYLOAD,2023-03-16 06:13:50,15.0886427,7.78e-05,53.2162,19.7594,78.2094,281.8986,0.00073229,0.00011393,0.0,0 STARLINK-3334,1 50823U 22001W   23075.25961774  .00011393  00000-0  73229-3 0  9994,2 50823  53.2162  19.7594 0000778  78.2094 281.8986 15.08864270 65943,6917.806,95.436,540.209,539.133,0.0
50823.0,STARLINK-3334,PAYLOAD,2023-03-16 20:32:20,15.08822399,7.75e-05,53.2168,17.0813,121.7921,238.3147,0.00021252,3.095e-05,0.0,0 STARLINK-3334,1 50823U 22001W   23075.85578722  .00003095  00000-0  21252-3 0  9996,2 50823  53.2168  17.0813 0000775 121.7921 238.3147 15.08822399 67319,6917.934,95.439,540.335,539.263,0.0
50823.0,STARLINK-3334,PAYLOAD,2023-03-17 06:04:38,15.08841336,4.9e-05,53.2163,15.3002,114.0106,246.0938,0.0014464,0.00022807,0.0,0 STARLINK-3334,1 50823U 22001W   23076.25322911  .00022807  00000-0  14464-2 0  9996,2 50823  53.2163  15.3002 0000490 114.0106 246.0938 15.08841336 67371,6917.876,95.437,540.08,539.402,0.0
50823.0,STARLINK-3334,PAYLOAD,2023-03-17 12:26:11,15.08843356,3.33e-05,53.2156,14.1096,105.662,254.4409,0.0010097,0.0001582,0.0,0 STARLINK-3334,1 50823U 22001W   23076.51818993  .00015820  00000-0  10097-2 0  9990,2 50823  53.2156  14.1096 0000333 105.6620 254.4409 15.08843356 66139,6917.87,95.437,539.965,539.505,0.0
50823.0,STARLINK-3334,PAYLOAD,2023-03-17 20:23:07,15.0883999,0.0001001,53.2163,12.6239,114.5099,245.5998,0.00077935,0.00012137,0.0,0 STARLINK-3334,1 50823U 22001W   23076.84939322  .00012137  00000-0  77935-3 0  9999,2 50823  53.2163  12.6239 0001001 114.5099 245.5998 15.08839990 67461,6917.88,95.438,540.438,539.053,0.0
50823.0,STARLINK-3334,PAYLOAD,2023-03-18 12:16:58,15.08844554,6.94e-05,53.2161,9.6496,85.5377,274.5695,0.00057378,8.857e-05,0.0,0 STARLINK-3334,1 50823U 22001W   23077.51179352  .00008857  00000-0  57378-3 0  9996,2 50823  53.2161   9.6496 0000694  85.5377 274.5695 15.08844554 67562,6917.866,95.437,540.212,539.251,0.0
50823.0,STARLINK-3334,PAYLOAD,2023-03-19 12:07:45,15.08844727,0.0001206,53.2168,5.1893,70.7406,289.3716,0.00023699,3.486e-05,0.0,0 STARLINK-3334,1 50823U 22001W   23078.50539293  .00003486  00000-0  23699-3 0  9992,2 50823  53.2168   5.1893 0001206  70.7406 289.3716 15.08844727 67717,6917.866,95.437,540.565,538.897,0.0
